COMMENT,ORIGINATOR,NORAD_CAT_ID,OBJECT_NAME,OBJECT_TYPE,CLASSIFICATION_TYPE,INTLDES,EPOCH,EPOCH_MICROSECONDS,MEAN_MOTION,ECCENTRICITY,INCLINATION,RA_OF_ASC_NODE,ARG_OF_PERICENTER,MEAN_ANOMALY,EPHEMERIS_TYPE,ELEMENT_SET_NO,REV_AT_EPOCH,BSTAR,MEAN_MOTION_DOT,MEAN_MOTION_DDOT,FILE,TLE_LINE0,TLE_LINE1,TLE_LINE2,OBJECT_ID,OBJECT_NUMBER,SEMIMAJOR_AXIS,PERIOD,APOGEE,PERIGEE,DECAYED,date
GENERATED VIA SPACETRACK.ORG API,18 SPCS,48895,SPACEBEE-108,PAYLOAD,U,21059S,2023/3/3 21:31,907328,15.23881991,0.0008378,97.5806,198.005,279.6327,80.3963,0,999,9331,0.001701,0.00041212,0,3850400,0 SPACEBEE-108,1 48895U 21059S   23062.89696652  .00041212  00000-0  17010-2 0  9996,2 48895  97.5806 198.0050 0008378 279.6327  80.3963 15.23881991 93318,2021-059S,48895,6872.282,94.496,499.904,488.389,0,
GENERATED VIA SPACETRACK.ORG API,18 SPCS,48895,SPACEBEE-108,PAYLOAD,U,21059S,2023/3/4 8:33,791232,15.23927139,0.0008358,97.5804,198.4698,278.1504,81.8784,0,999,9338,0.0019755,0.00047982,0,3850861,0 SPACEBEE-108,1 48895U 21059S   23063.35660638  .00047982  00000-0  19755-2 0  9991,2 48895  97.5804 198.4698 0008358 278.1504  81.8784 15.23927139 93386,2021-059S,48895,6872.146,94.493,499.755,488.267,0,
GENERATED VIA SPACETRACK.ORG API,18 SPCS,48895,SPACEBEE-108,PAYLOAD,U,21059S,2023/3/4 8:33,791232,15.23927139,0.0008358,97.5804,198.4698,278.1504,81.8784,0,999,9338,0.0019755,0.00047982,0,3851072,0 SPACEBEE-108,1 48895U 21059S   23063.35660638  .00047982  00000-0  19755-2 0  9991,2 48895  97.5804 198.4698 0008358 278.1504  81.8784 15.23927139 93386,2021-059S,48895,6872.146,94.493,499.755,488.267,0,
GENERATED VIA SPACETRACK.ORG API,18 SPCS,48895,SPACEBEE-108,PAYLOAD,U,21059S,2023/3/4 14:51,383168,15.23949274,0.0008355,97.5808,198.7354,277.0468,82.9818,0,999,9342,0.0019195,0.00046642,0,3851350,0 SPACEBEE-108,1 48895U 21059S   23063.61925212  .00046642  00000-0  19195-2 0  9992,2 48895  97.5808 198.7354 0008355 277.0468  82.9818 15.23949274 93425,2021-059S,48895,6872.079,94.491,499.686,488.203,0,
GENERATED VIA SPACETRACK.ORG API,18 SPCS,48895,SPACEBEE-108,PAYLOAD,U,21059S,2023/3/4 19:35,639200,15.23961358,0.0008391,97.5809,198.9345,276.4622,83.566,0,999,9345,0.0016181,0.00039283,0,3851432,0 SPACEBEE-108,1 48895U 21059S   23063.81623425  .00039283  00000-0  16181-2 0  9990,2 48895  97.5809 198.9345 0008391 276.4622  83.5660 15.23961358 93455,2021-059S,48895,6872.043,94.491,499.674,488.142,0,
GENERATED VIA SPACETRACK.ORG API,18 SPCS,48895,SPACEBEE-108,PAYLOAD,U,21059S,2023/3/5 8:11,303296,15.24011248,0.0008453,97.581,199.4656,274.7409,85.2863,0,999,9353,0.0018702,0.0004552,0,3851939,0 SPACEBEE-108,1 48895U 21059S   23064.34150814  .00045520  00000-0  18702-2 0  9998,2 48895  97.5810 199.4656 0008453 274.7409  85.2863 15.24011248 93539,2021-059S,48895,6871.893,94.487,499.567,487.949,0,
GENERATED VIA SPACETRACK.ORG API,18 SPCS,48895,SPACEBEE-108,PAYLOAD,U,21059S,2023/3/5 8:11,303296,15.24011248,0.0008453,97.581,199.4656,274.7409,85.2863,0,999,9353,0.0018702,0.0004552,0,3852004,0 SPACEBEE-108,1 48895U 21059S   23064.34150814  .00045520  00000-0  18702-2 0  9998,2 48895  97.5810 199.4656 0008453 274.7409  85.2863 15.24011248 93539,2021-059S,48895,6871.893,94.487,499.567,487.949,0,
GENERATED VIA SPACETRACK.ORG API,18 SPCS,48895,SPACEBEE-108,PAYLOAD,U,21059S,2023/3/5 22:22,189088,15.24069087,0.0008725,97.5804,200.0624,275.0904,84.9336,0,999,9362,0.0019704,0.00048065,0,3852256,0 SPACEBEE-108,1 48895U 21059S   23064.93242117  .00048065  00000-0  19704-2 0  9991,2 48895  97.5804 200.0624 0008725 275.0904  84.9336 15.24069087 93627,2021-059S,48895,6871.719,94.484,499.58,487.589,0,
GENERATED VIA SPACETRACK.ORG API,18 SPCS,48895,SPACEBEE-108,PAYLOAD,U,21059S,2023/3/6 7:49,705664,15.24107576,0.000855,97.5809,200.4612,271.592,88.4337,0,999,9368,0.0020198,0.00049334,0,3852925,0 SPACEBEE-108,1 48895U 21059S   23065.32635076  .00049334  00000-0  20198-2 0  9994,2 48895  97.5809 200.4612 0008550 271.5920  88.4337 15.24107576 93680,2021-059S,48895,6871.604,94.482,499.344,487.593,0,
GENERATED VIA SPACETRACK.ORG API,18 SPCS,48895,SPACEBEE-108,PAYLOAD,U,21059S,2023/3/6 7:49,705664,15.24107576,0.000855,97.5809,200.4612,271.592,88.4337,0,999,9368,0.0020198,0.00049334,0,3853141,0 SPACEBEE-108,1 48895U 21059S   23065.32635076  .00049334  00000-0  20198-2 0  9994,2 48895  97.5809 200.4612 0008550 271.5920  88.4337 15.24107576 93680,2021-059S,48895,6871.604,94.482,499.344,487.593,0,
GENERATED VIA SPACETRACK.ORG API,18 SPCS,48895,SPACEBEE-108,PAYLOAD,U,21059S,2023/3/7 9:02,836928,15.24214118,0.0008456,97.5817,201.5236,267.8138,92.2131,0,999,9384,0.002132,0.00052264,0,3853625,0 SPACEBEE-108,1 48895U 21059S   23066.37678052  .00052264  00000-0  21320-2 0  9995,2 48895  97.5817 201.5236 0008456 267.8138  92.2131 15.24214118 93841,2021-059S,48895,6871.283,94.475,498.959,487.338,0,
GENERATED VIA SPACETRACK.ORG API,18 SPCS,48895,SPACEBEE-108,PAYLOAD,U,21059S,2023/3/7 9:02,836928,15.24214118,0.0008456,97.5817,201.5236,267.8138,92.2131,0,999,9384,0.002132,0.00052264,0,3854072,0 SPACEBEE-108,1 48895U 21059S   23066.37678052  .00052264  00000-0  21320-2 0  9995,2 48895  97.5817 201.5236 0008456 267.8138  92.2131 15.24214118 93841,2021-059S,48895,6871.283,94.475,498.959,487.338,0,
GENERATED VIA SPACETRACK.ORG API,18 SPCS,48895,SPACEBEE-108,PAYLOAD,U,21059S,2023/3/8 8:40,62592,15.24303869,0.0008438,97.582,202.5197,264.608,95.4195,0,999,9399,0.0018167,0.00044596,0,3854458,0 SPACEBEE-108,1 48895U 21059S   23067.36149378  .00044596  00000-0  18167-2 0  9993,2 48895  97.5820 202.5197 0008438 264.6080  95.4195 15.24303869 93996,2021-059S,48895,6871.014,94.469,498.676,487.081,0,
GENERATED VIA SPACETRACK.ORG API,18 SPCS,48895,SPACEBEE-108,PAYLOAD,U,21059S,2023/3/8 19:42,848416,15.24361003,0.0008439,97.582,202.9845,263.1037,96.924,0,999,9406,0.0024207,0.00059669,0,3854849,0 SPACEBEE-108,1 48895U 21059S   23067.82100519  .00059669  00000-0  24207-2 0  9997,2 48895  97.5820 202.9845 0008439 263.1037  96.9240 15.24361003 94067,2021-059S,48895,6870.842,94.466,498.505,486.909,0,
GENERATED VIA SPACETRACK.ORG API,18 SPCS,48895,SPACEBEE-108,PAYLOAD,U,21059S,2023/3/8 19:42,848416,15.24361003,0.0008439,97.582,202.9845,263.1037,96.924,0,999,9406,0.0024207,0.00059669,0,3855077,0 SPACEBEE-108,1 48895U 21059S   23067.82100519  .00059669  00000-0  24207-2 0  9997,2 48895  97.5820 202.9845 0008439 263.1037  96.9240 15.24361003 94067,2021-059S,48895,6870.842,94.466,498.505,486.909,0,
GENERATED VIA SPACETRACK.ORG API,18 SPCS,48895,SPACEBEE-108,PAYLOAD,U,21059S,2023/3/9 14:36,411808,15.24437561,0.0008472,97.582,203.7813,260.6976,99.3303,0,999,9418,0.0024187,0.00059757,0,3855557,0 SPACEBEE-108,1 48895U 21059S   23068.60870847  .00059757  00000-0  24187-2 0  9997,2 48895  97.5820 203.7813 0008472 260.6976  99.3303 15.24437561 94185,2021-059S,48895,6870.612,94.461,498.298,486.656,0,
GENERATED VIA SPACETRACK.ORG API,18 SPCS,48895,SPACEBEE-108,PAYLOAD,U,21059S,2023/3/9 20:54,430784,15.2446027,0.000851,97.582,204.047,259.9077,100.12,0,999,9422,0.0020974,0.00051789,0,3855951,0 SPACEBEE-108,1 48895U 21059S   23068.87126656  .00051789  00000-0  20974-2 0  9995,2 48895  97.5820 204.0470 0008510 259.9077 100.1200 15.24460270 94229,2021-059S,48895,6870.544,94.46,498.255,486.562,0,
GENERATED VIA SPACETRACK.ORG API,18 SPCS,48895,SPACEBEE-108,PAYLOAD,U,21059S,2023/3/10 7:56,137664,15.2451338,0.0008532,97.5815,204.5111,259.1236,100.9041,0,999,9429,0.0022574,0.00055865,0,3856402,0 SPACEBEE-108,1 48895U 21059S   23069.33073076  .00055865  00000-0  22574-2 0  9991,2 48895  97.5815 204.5111 0008532 259.1236 100.9041 15.24513380 94292,2021-059S,48895,6870.384,94.456,498.111,486.387,0,
GENERATED VIA SPACETRACK.ORG API,18 SPCS,48895,SPACEBEE-108,PAYLOAD,U,21059S,2023/3/10 18:57,689376,15.24553142,0.0008528,97.5817,204.9762,258.0757,101.9524,0,999,9436,0.0018496,0.00045752,0,3856975,0 SPACEBEE-108,1 48895U 21059S   23069.79018159  .00045752  00000-0  18496-2 0  9994,2 48895  97.5817 204.9762 0008528 258.0757 101.9524 15.24553142 94366,2021-059S,48895,6870.265,94.454,497.989,486.271,0,
GENERATED VIA SPACETRACK.ORG API,18 SPCS,48895,SPACEBEE-108,PAYLOAD,U,21059S,2023/3/11 2:50,623168,15.24585897,0.0008573,97.5816,205.3082,257.049,102.9789,0,999,9441,0.0019316,0.00047844,0,3857058,0 SPACEBEE-108,1 48895U 21059S   23070.11835212  .00047844  00000-0  19316-2 0  9995,2 48895  97.5816 205.3082 0008573 257.0490 102.9789 15.24585897 94410,2021-059S,48895,6870.166,94.452,497.921,486.141,0,
GENERATED VIA SPACETRACK.ORG API,18 SPCS,48895,SPACEBEE-108,PAYLOAD,U,21059S,2023/3/11 7:33,653568,15.24611497,0.0008554,97.5825,205.5083,255.6427,104.3861,0,999,9444,0.0019954,0.00049475,0,3857581,0 SPACEBEE-108,1 48895U 21059S   23070.31525062  .00049475  00000-0  19954-2 0  9996,2 48895  97.5825 205.5083 0008554 255.6427 104.3861 15.24611497 94442,2021-059S,48895,6870.089,94.45,497.831,486.078,0,
GENERATED VIA SPACETRACK.ORG API,18 SPCS,48895,SPACEBEE-108,PAYLOAD,U,21059S,2023/3/11 20:10,191296,15.24654413,0.0008477,97.5826,206.0402,254.6684,105.3617,0,999,9452,0.0016741,0.00041505,0,3857847,0 SPACEBEE-108,1 48895U 21059S   23070.84030314  .00041505  00000-0  16741-2 0  9992,2 48895  97.5826 206.0402 0008477 254.6684 105.3617 15.24654413 94526,2021-059S,48895,6869.96,94.448,497.649,486.002,0,
GENERATED VIA SPACETRACK.ORG API,18 SPCS,48895,SPACEBEE-108,PAYLOAD,U,21059S,2023/3/12 8:46,321568,15.24704607,0.0008457,97.5825,206.571,252.1685,107.863,0,999,9460,0.0019149,0.00047595,0,3858318,0 SPACEBEE-108,1 48895U 21059S   23071.36533937  .00047595  00000-0  19149-2 0  9999,2 48895  97.5825 206.5710 0008457 252.1685 107.8630 15.24704607 94606,2021-059S,48895,6869.81,94.445,497.484,485.865,0,
